NORAD_CAT_ID,OBJECT_NAME,OBJECT_TYPE,EPOCH,MEAN_MOTION,ECCENTRICITY,INCLINATION,RA_OF_ASC_NODE,ARG_OF_PERICENTER,MEAN_ANOMALY,BSTAR,MEAN_MOTION_DOT,MEAN_MOTION_DDOT,TLE_LINE0,TLE_LINE1,TLE_LINE2,SEMIMAJOR_AXIS,PERIOD,APOGEE,PERIGEE,DECAYED
53420.0,STARLINK-4552,PAYLOAD,2023-08-07 05:28:45,15.08823963,0.0001205,53.2177,38.4591,71.7956,288.3167,-6.251e-05,-1.282e-05,0.0,0 STARLINK-4552,1 53420U 22097AJ  23219.22830027 -.00001282  00000-0 -62510-4 0  9998,2 53420  53.2177  38.4591 0001205  71.7956 288.3167 15.08823963 55431,6917.929,95.439,540.628,538.961,0.0
53420.0,STARLINK-4552,PAYLOAD,2023-08-07 18:11:50,15.08836145,0.0001003,53.2171,36.0803,59.0309,301.0782,0.0002301,3.376e-05,0.0,0 STARLINK-4552,1 53420U 22097AJ  23219.75821986  .00003376  00000-0  23010-3 0  9995,2 53420  53.2171  36.0803 0001003  59.0309 301.0782 15.08836145 55513,6917.892,95.438,540.451,539.063,0.0
53420.0,STARLINK-4552,PAYLOAD,2023-08-08 05:19:32,15.08853372,0.0001181,53.2168,33.9994,59.9343,300.1766,0.00093645,0.00014652,0.0,0 STARLINK-4552,1 53420U 22097AJ  23220.22190114  .00014652  00000-0  93645-3 0  9991,2 53420  53.2168  33.9994 0001181  59.9343 300.1766 15.08853372 55580,6917.84,95.437,540.522,538.888,0.0
53420.0,STARLINK-4552,PAYLOAD,2023-08-08 21:13:22,15.08882034,0.0001263,53.2169,31.026,54.1296,305.9813,0.001186,0.00018659,0.0,0 STARLINK-4552,1 53420U 22097AJ  23220.88428799  .00018659  00000-0  11860-2 0  9995,2 53420  53.2169  31.0260 0001263  54.1296 305.9813 15.08882034 55685,6917.752,95.435,540.491,538.743,0.0
53420.0,STARLINK-4552,PAYLOAD,2023-08-09 17:53:23,15.08850395,9.84e-05,53.217,27.1601,60.4525,299.6565,0.00012806,1.751e-05,0.0,0 STARLINK-4552,1 53420U 22097AJ  23221.74540605  .00001751  00000-0  12806-3 0  9999,2 53420  53.2170  27.1601 0000984  60.4525 299.6565 15.08850395 55819,6917.849,95.437,540.394,539.033,0.0
53420.0,STARLINK-4552,PAYLOAD,2023-08-10 11:22:37,15.08845221,0.0001122,53.2174,23.8901,68.4588,291.6524,-1.7563e-06,-3.16e-06,0.0,0 STARLINK-4552,1 53420U 22097AJ  23222.47404641 -.00000316  00000-0 -17563-5 0  9994,2 53420  53.2174  23.8901 0001122  68.4588 291.6524 15.08845221 55922,6917.864,95.437,540.506,538.953,0.0
53420.0,STARLINK-4552,PAYLOAD,2023-08-10 20:54:55,15.08856547,0.0001046,53.2164,22.1039,66.5949,293.5153,0.00022444,3.288e-05,0.0,0 STARLINK-4552,1 53420U 22097AJ  23222.87147991  .00003288  00000-0  22444-3 0  9991,2 53420  53.2164  22.1039 0001046  66.5949 293.5153 15.08856547 55988,6917.83,95.437,540.418,538.971,0.0
53420.0,STARLINK-4552,PAYLOAD,2023-08-11 11:13:24,15.08834938,8.94e-05,53.2172,19.4295,76.5495,283.5596,-2.7122e-05,-7.19e-06,0.0,0 STARLINK-4552,1 53420U 22097AJ  23223.46764916 -.00000719  00000-0 -27122-4 0  9996,2 53420  53.2172  19.4295 0000894  76.5495 283.5596 15.08834938 56078,6917.896,95.438,540.379,539.142,0.0
53420.0,STARLINK-4552,PAYLOAD,2023-08-11 17:34:57,15.08843645,9.5e-05,53.217,18.2399,80.7667,279.3433,0.00014388,2.003e-05,0.0,0 STARLINK-4552,1 53420U 22097AJ  23223.73260643  .00002003  00000-0  14388-3 0  9999,2 53420  53.2170  18.2399 0000950  80.7667 279.3433 15.08843645 56112,6917.869,95.437,540.391,539.077,0.0
53420.0,STARLINK-4552,PAYLOAD,2023-08-12 11:04:11,15.0883825,9.12e-05,53.2168,14.9687,84.5381,275.5715,5.2887e-05,5.54e-06,0.0,0 STARLINK-4552,1 53420U 22097AJ  23224.46124888  .00000554  00000-0  52887-4 0  9996,2 53420  53.2168  14.9687 0000912  84.5381 275.5715 15.08838250 56224,6917.886,95.438,540.382,539.12,0.0
53420.0,STARLINK-4552,PAYLOAD,2023-08-13 17:16:31,15.08839046,0.0001133,53.2178,9.3186,82.4895,277.6226,7.6218e-05,9.25e-06,0.0,0 STARLINK-4552,1 53420U 22097AJ  23225.71981220  .00000925  00000-0  76218-4 0  9992,2 53420  53.2178   9.3186 0001133  82.4895 277.6226 15.08839046 56415,6917.883,95.438,540.532,538.965,0.0
53420.0,STARLINK-4552,PAYLOAD,2023-08-14 09:10:23,15.08835696,0.0001104,53.2185,6.3456,83.8658,276.246,2.369e-05,8.9e-07,0.0,0 STARLINK-4552,1 53420U 22097AJ  23226.38221560  .00000089  00000-0  23690-4 0  9997,2 53420  53.2185   6.3456 0001104  83.8658 276.2460 15.08835696 56513,6917.894,95.438,540.522,538.995,0.0
53420.0,STARLINK-4552,PAYLOAD,2023-08-15 16:58:05,15.08848064,0.0001241,53.2179,0.3997,64.3768,295.7352,0.00019218,2.773e-05,0.0,0 STARLINK-4552,1 53420U 22097AJ  23227.70701106  .00002773  00000-0  19218-3 0  9995,2 53420  53.2179   0.3997 0001241  64.3768 295.7352 15.08848064 56719,6917.856,95.437,540.579,538.862,0.0
53420.0,STARLINK-4552,PAYLOAD,2023-08-16 08:51:55,15.08874719,0.0001213,53.2169,357.4255,66.5591,293.5528,-0.0010364,-0.0001676,0.0,0 STARLINK-4552,1 53420U 22097AJ  23228.36938927 -.00016760  00000-0 -10364-2 0  9996,2 53420  53.2169 357.4255 0001213  66.5591 293.5528 15.08874719 56816,6917.774,95.435,540.478,538.8,0.0
53420.0,STARLINK-4552,PAYLOAD,2023-08-16 16:48:52,15.0884201,0.0001418,53.2158,355.9366,91.4923,268.6232,9.3733e-05,1.204e-05,0.0,0 STARLINK-4552,1 53420U 22097AJ  23228.70061315  .00001204  00000-0  93733-4 0  9990,2 53420  53.2158 355.9366 0001418  91.4923 268.6232 15.08842010 56862,6917.874,95.437,540.72,538.758,0.0
53420.0,STARLINK-4552,PAYLOAD,2023-08-18 00:36:35,15.08839742,0.0001348,53.2161,349.9894,99.2566,260.8579,7.3711e-05,8.85e-06,0.0,0 STARLINK-4552,1 53420U 22097AJ  23230.02541360  .00000885  00000-0  73711-4 0  9999,2 53420  53.2161 349.9894 0001348  99.2566 260.8579 15.08839742 57065,6917.881,95.438,540.679,538.814,0.0
53420.0,STARLINK-4552,PAYLOAD,2023-08-18 08:33:31,15.08833405,0.0001364,53.2159,348.5027,103.2562,256.8582,6.3304e-06,-1.87e-06,0.0,0 STARLINK-4552,1 53420U 22097AJ  23230.35661933 -.00000187  00000-0  63304-5 0  9998,2 53420  53.2159 348.5027 0001364 103.2562 256.8582 15.08833405 57110,6917.901,95.438,540.709,538.822,0.0
53420.0,STARLINK-4552,PAYLOAD,2023-08-19 11:35:05,15.08845859,0.0001452,53.2199,343.4509,114.6053,245.5091,-0.0001279,-2.323e-05,0.0,0 STARLINK-4552,1 53420U 22097AJ  23231.48269750 -.00002323  00000-0 -12790-3 0  9990,2 53420  53.2199 343.4509 0001452 114.6053 245.5091 15.08845859 57286,6917.862,95.437,540.732,538.723,0.0
53420.0,STARLINK-4552,PAYLOAD,2023-08-20 11:25:52,15.08833275,0.0001179,53.2202,338.9903,102.9581,257.1543,7.506e-05,9.07e-06,0.0,0 STARLINK-4552,1 53420U 22097AJ  23232.47630256  .00000907  00000-0  75060-4 0  9997,2 53420  53.2202 338.9903 0001179 102.9581 257.1543 15.08833275 57437,6917.901,95.438,540.582,538.95,0.0
53420.0,STARLINK-4552,PAYLOAD,2023-08-21 12:52:02,15.08838238,0.0001148,53.2195,334.2321,85.6759,274.4365,0.00013191,1.812e-05,0.0,0 STARLINK-4552,1 53420U 22097AJ  23233.53614050  .00001812  00000-0  13191-3 0  9991,2 53420  53.2195 334.2321 0001148  85.6759 274.4365 15.08838238 57596,6917.886,95.438,540.545,538.957,0.0
53420.0,STARLINK-4552,PAYLOAD,2023-08-21 14:27:24,15.08849,0.0001047,53.219,333.9331,92.4275,267.6837,0.00011822,1.595e-05,0.0,0 STARLINK-4552,1 53420U 22097AJ  23233.60237259  .00001595  00000-0  11822-3 0  9998,2 53420  53.2190 333.9331 0001047  92.4275 267.6837 15.08849000 57604,6917.853,95.437,540.442,538.994,0.0
53420.0,STARLINK-4552,PAYLOAD,2023-08-22 11:07:26,15.08839971,0.0001158,53.2191,330.0682,87.8441,272.2684,5.7912e-05,6.34e-06,0.0,0 STARLINK-4552,1 53420U 22097AJ  23234.46350187  .00000634  00000-0  57912-4 0  9993,2 53420  53.2191 330.0682 0001158  87.8441 272.2684 15.08839971 57730,6917.88,95.438,540.547,538.944,0.0
53420.0,STARLINK-4552,PAYLOAD,2023-08-23 12:33:36,15.08842478,0.0001296,53.2186,325.31,95.3348,264.7792,2.2577e-05,7.1e-07,0.0,0 STARLINK-4552,1 53420U 22097AJ  23235.52334083  .00000071  00000-0  22577-4 0  9992,2 53420  53.2186 325.3100 0001296  95.3348 264.7792 15.08842478 57898,6917.873,95.437,540.634,538.841,0.0
53420.0,STARLINK-4552,PAYLOAD,2023-08-24 10:49:00,15.08840689,0.0001393,53.2175,321.1452,113.7987,246.3151,3.8235e-05,3.21e-06,0.0,0 STARLINK-4552,1 53420U 22097AJ  23236.45070002  .00000321  00000-0  38235-4 0  9999,2 53420  53.2175 321.1452 0001393 113.7987 246.3151 15.08840689 58496,6917.878,95.438,540.707,538.78,0.0
53420.0,STARLINK-4552,PAYLOAD,2023-08-25 10:39:47,15.08842964,0.0001327,53.2177,316.6866,101.1276,258.9866,6.2233e-05,7.03e-06,0.0,0 STARLINK-4552,1 53420U 22097AJ  23237.44429838  .00000703  00000-0  62233-4 0  9993,2 53420  53.2177 316.6866 0001327 101.1276 258.9866 15.08842964 58181,6917.871,95.437,540.654,538.818,0.0
53420.0,STARLINK-4552,PAYLOAD,2023-08-25 12:15:10,15.08843887,0.0001332,53.2179,316.3894,100.4424,259.6719,6.7328e-05,7.84e-06,0.0,0 STARLINK-4552,1 53420U 22097AJ  23237.51053768  .00000784  00000-0  67328-4 0  9995,2 53420  53.2179 316.3894 0001332 100.4424 259.6719 15.08843887 58656,6917.869,95.437,540.655,538.812,0.0
53420.0,STARLINK-4552,PAYLOAD,2023-08-26 10:30:35,15.08833934,0.000147,53.2186,312.2275,103.2507,256.8649,5.8764e-06,-1.94e-06,0.0,0 STARLINK-4552,1 53420U 22097AJ  23238.43790761 -.00000194  00000-0  58764-5 0  9999,2 53420  53.2186 312.2275 0001470 103.2507 256.8649 15.08833934 58336,6917.899,95.438,540.781,538.747,0.0
53420.0,STARLINK-4552,PAYLOAD,2023-08-26 12:05:58,15.08834878,0.0001483,53.2187,311.9302,103.8998,256.2159,1.2225e-05,-9.3e-07,0.0,0 STARLINK-4552,1 53420U 22097AJ  23238.50414692 -.00000093  00000-0  12225-4 0  9992,2 53420  53.2187 311.9302 0001483 103.8998 256.2159 15.08834878 58808,6917.896,95.438,540.787,538.735,0.0
53420.0,STARLINK-4552,PAYLOAD,2023-08-27 08:45:58,15.08846379,0.0001612,53.2184,308.0639,101.5254,258.592,6.888e-05,8.09e-06,0.0,0 STARLINK-4552,1 53420U 22097AJ  23239.36525751  .00000809  00000-0  68880-4 0  9998,2 53420  53.2184 308.0639 0001612 101.5254 258.5920 15.08846379 58472,6917.861,95.437,540.841,538.611,0.0
53420.0,STARLINK-4552,PAYLOAD,2023-08-27 11:56:43,15.08859969,0.000143,53.2184,307.4693,92.7805,267.3351,0.00018655,2.684e-05,0.0,0 STARLINK-4552,1 53420U 22097AJ  23239.49772543  .00002684  00000-0  18655-3 0  9992,2 53420  53.2184 307.4693 0001430  92.7805 267.3351 15.08859969 58493,6917.819,95.436,540.674,538.695,0.0
